ONEWEB-0616             
1 55157U 23004T   23222.68675424  .00000111  00000+0  20443-3 0  9993
2 55157  88.1093 211.2658 0009911 252.2996 107.7063 13.32073516 30495
ONEWEB-0617             
1 55158U 23004U   23222.99597516 -.00004230  00000+0 -11973-1 0  9997
2 55158  87.8518 227.9255 0002677  65.4343 294.7063 13.11434568 29404
ONEWEB-0618             
1 55159U 23004V   23222.42966113  .00000187  00000+0  69755-4 0  9998
2 55159  86.9110 203.7065 0012215 205.3155 154.7440 14.26590412 30896
ONEWEB-0619             
1 55160U 23004W   23222.44304777  .00000067  00000+0  11333-3 0  9999
2 55160  87.9582 212.8378 0010561 270.9819  89.0110 13.31599434 30350
ONEWEB-0620             
1 55161U 23004X   23222.76288769  .00000760  00000+0  21076-2 0  9991
2 55161  87.8529 227.9669 0002586  73.2780 286.8631 13.11416661 29339
ONEWEB-0621             
1 55162U 23004Y   23222.40231073  .00000014  00000+0  35998-6 0  9993
2 55162  87.7013 228.2418 0008907 303.2156  56.8134 13.41785295 29247
ONEWEB-0622             
1 55163U 23004Z   23223.02465539 -.00000012  00000+0 -70934-4 0  9996
2 55163  87.8709 227.9192 0002646  63.5137 296.6262 13.11421925 29346
ONEWEB-0623             
1 55164U 23004AA  23221.69399997  .00000102  00000+0  18667-3 0  9994
2 55164  87.9674 213.0533 0001864 136.1055 224.0233 13.31023174 30252
